ONEWEB-0176             
1 48210U 21031A   26192.23221135  .00000062  00000+0  13212-3 0  9990
2 48210  87.8967 284.9086 0002143 101.4158 258.7213 13.14502235251472
ONEWEB-0184             
1 48211U 21031B   26192.20525198 -.00000189  00000+0 -54454-3 0  9999
2 48211  87.8978 284.9157 0002522 116.4342 243.7046 13.14502371251442
ONEWEB-0179             
1 48212U 21031C   26191.18912044  .00001501  00000+0  48503-3 0  9991
2 48212  87.8995 281.4390 0220842 181.7306 178.3150 14.25563332252329
ONEWEB-0180             
1 48213U 21031D   26192.20842830 -.00000246  00000+0 -69828-3 0  9991
2 48213  87.8978 284.9118 0002496 100.0559 260.0853 13.14502558251377
ONEWEB-0218             
1 48214U 21031E   26192.23062633  .00000108  00000+0  25711-3 0  9998
2 48214  87.8976 284.9076 0002737 114.1228 246.0188 13.14503487251531
ONEWEB-0209             
1 48215U 21031F   26192.21953213 -.00000131  00000+0 -38656-3 0  9990
2 48215  87.8966 284.9238 0002278  96.7031 263.4358 13.14503468251539
ONEWEB-0198             
1 48216U 21031G   26191.21427659 -.00000189  00000+0 -54436-3 0  9997
2 48216  87.8960 285.1218 0002456 102.9387 257.2017 13.14502687251510
ONEWEB-0189             
1 48217U 21031H   26192.21635399 -.00000164  00000+0 -47657-3 0  9991
2 48217  87.8971 284.9107 0002403 102.0951 258.0448 13.14502412251385
ONEWEB-0196             
1 48218U 21031J   26191.66132848 -.00000117  00000+0 -35130-3 0  9992
2 48218  87.8969 285.0302 0002194  98.9921 261.1457 13.14502206251318
ONEWEB-0183             
1 48219U 21031K   26190.26583378  .00000103  00000+0  24408-3 0  9995
2 48219  87.8967 285.3061 0001983  92.1445 267.9912 13.14501888251229
ONEWEB-0185             
1 48220U 21031L   26191.20540141 -.00000149  00000+0 -43730-3 0  9994
2 48220  87.8975 285.1138 0002251  90.1848 269.9539 13.14503520251274
ONEWEB-0187             
1 48221U 21031M   26192.02274781  .00000160  00000+0  39794-3 0  9996
2 48221  87.8968 284.9649 0002226 101.4647 258.6733 13.14502289251391
ONEWEB-0192             
1 48222U 21031N   26192.22111321 -.00000137  00000+0 -40403-3 0  9994
2 48222  87.8968 284.9153 0002134 100.4682 259.6688 13.14503025251331
ONEWEB-0219             
1 48223U 21031P   26191.66765968 -.00000192  00000+0 -55259-3 0  9990
2 48223  87.8983 285.0192 0002221  95.3365 264.8018 13.14503449251460
ONEWEB-0202             
1 48224U 21031Q   26191.26805884  .00000018  00000+0  15221-4 0  9990
2 48224  87.8974 285.1108 0002603 110.8171 249.3238 13.14502513251396
ONEWEB-0204             
1 48225U 21031R   26192.21554767 -.00000168  00000+0 -48638-3 0  9993
2 48225  87.8973 284.9159 0001869  86.4497 273.6846 13.14499557251412
