{"fetched_at":"2026-07-11T09:23:57.375Z","source":"https://celestrak.org/NORAD/elements/gp.php?GROUP=oneweb&FORMAT=JSON","constellation":"oneweb","records":[{"OBJECT_NAME":"ONEWEB-0176","OBJECT_ID":"2021-031A","EPOCH":"2026-07-11T05:34:23.060640","CLASSIFICATION_TYPE":"U","MEAN_MOTION":13.14502235,"ECCENTRICITY":0.0002143,"INCLINATION":87.8967,"RA_OF_ASC_NODE":284.9086,"ARG_OF_PERICENTER":101.4158,"MEAN_ANOMALY":258.7213,"EPHEMERIS_TYPE":0,"NORAD_CAT_ID":48210,"ELEMENT_SET_NO":999,"REV_AT_EPOCH":25147,"BSTAR":0.00013212,"MEAN_MOTION_DOT":6.2e-7,"MEAN_MOTION_DDOT":0},{"OBJECT_NAME":"ONEWEB-0184","OBJECT_ID":"2021-031B","EPOCH":"2026-07-11T04:55:33.771072","CLASSIFICATION_TYPE":"U","MEAN_MOTION":13.14502371,"ECCENTRICITY":0.0002522,"INCLINATION":87.8978,"RA_OF_ASC_NODE":284.9157,"ARG_OF_PERICENTER":116.4342,"MEAN_ANOMALY":243.7046,"EPHEMERIS_TYPE":0,"NORAD_CAT_ID":48211,"ELEMENT_SET_NO":999,"REV_AT_EPOCH":25144,"BSTAR":-0.00054454,"MEAN_MOTION_DOT":-0.00000189,"MEAN_MOTION_DDOT":0},{"OBJECT_NAME":"ONEWEB-0179","OBJECT_ID":"2021-031C","EPOCH":"2026-07-10T04:32:20.006016","CLASSIFICATION_TYPE":"U","MEAN_MOTION":14.25563332,"ECCENTRICITY":0.02208429,"INCLINATION":87.8995,"RA_OF_ASC_NODE":281.439,"ARG_OF_PERICENTER":181.7306,"MEAN_ANOMALY":178.315,"EPHEMERIS_TYPE":0,"NORAD_CAT_ID":48212,"ELEMENT_SET_NO":999,"REV_AT_EPOCH":25232,"BSTAR":0.00048502786,"MEAN_MOTION_DOT":0.00001501,"MEAN_MOTION_DDOT":0},{"OBJECT_NAME":"ONEWEB-0180","OBJECT_ID":"2021-031D","EPOCH":"2026-07-11T05:00:08.205120","CLASSIFICATION_TYPE":"U","MEAN_MOTION":13.14502558,"ECCENTRICITY":0.0002496,"INCLINATION":87.8978,"RA_OF_ASC_NODE":284.9118,"ARG_OF_PERICENTER":100.0559,"MEAN_ANOMALY":260.0853,"EPHEMERIS_TYPE":0,"NORAD_CAT_ID":48213,"ELEMENT_SET_NO":999,"REV_AT_EPOCH":25137,"BSTAR":-0.00069828,"MEAN_MOTION_DOT":-0.00000246,"MEAN_MOTION_DDOT":0},{"OBJECT_NAME":"ONEWEB-0218","OBJECT_ID":"2021-031E","EPOCH":"2026-07-11T05:32:06.114912","CLASSIFICATION_TYPE":"U","MEAN_MOTION":13.14503487,"ECCENTRICITY":0.0002737,"INCLINATION":87.8976,"RA_OF_ASC_NODE":284.9076,"ARG_OF_PERICENTER":114.1228,"MEAN_ANOMALY":246.0188,"EPHEMERIS_TYPE":0,"NORAD_CAT_ID":48214,"ELEMENT_SET_NO":999,"REV_AT_EPOCH":25153,"BSTAR":0.00025711,"MEAN_MOTION_DOT":0.00000108,"MEAN_MOTION_DDOT":0},{"OBJECT_NAME":"ONEWEB-0209","OBJECT_ID":"2021-031F","EPOCH":"2026-07-11T05:16:07.576032","CLASSIFICATION_TYPE":"U","MEAN_MOTION":13.14503468,"ECCENTRICITY":0.0002278,"INCLINATION":87.8966,"RA_OF_ASC_NODE":284.9238,"ARG_OF_PERICENTER":96.7031,"MEAN_ANOMALY":263.4358,"EPHEMERIS_TYPE":0,"NORAD_CAT_ID":48215,"ELEMENT_SET_NO":999,"REV_AT_EPOCH":25153,"BSTAR":-0.00038656,"MEAN_MOTION_DOT":-0.00000131,"MEAN_MOTION_DDOT":0},{"OBJECT_NAME":"ONEWEB-0198","OBJECT_ID":"2021-031G","EPOCH":"2026-07-10T05:08:33.497376","CLASSIFICATION_TYPE":"U","MEAN_MOTION":13.14502687,"ECCENTRICITY":0.0002456,"INCLINATION":87.896,"RA_OF_ASC_NODE":285.1218,"ARG_OF_PERICENTER":102.9387,"MEAN_ANOMALY":257.2017,"EPHEMERIS_TYPE":0,"NORAD_CAT_ID":48216,"ELEMENT_SET_NO":999,"REV_AT_EPOCH":25151,"BSTAR":-0.00054436403,"MEAN_MOTION_DOT":-0.00000189,"MEAN_MOTION_DDOT":0},{"OBJECT_NAME":"ONEWEB-0189","OBJECT_ID":"2021-031H","EPOCH":"2026-07-11T05:11:32.984736","CLASSIFICATION_TYPE":"U","MEAN_MOTION":13.14502412,"ECCENTRICITY":0.0002403,"INCLINATION":87.8971,"RA_OF_ASC_NODE":284.9107,"ARG_OF_PERICENTER":102.0951,"MEAN_ANOMALY":258.0448,"EPHEMERIS_TYPE":0,"NORAD_CAT_ID":48217,"ELEMENT_SET_NO":999,"REV_AT_EPOCH":25138,"BSTAR":-0.00047657,"MEAN_MOTION_DOT":-0.00000164,"MEAN_MOTION_DDOT":0},{"OBJECT_NAME":"ONEWEB-0196","OBJECT_ID":"2021-031J","EPOCH":"2026-07-10T15:52:18.780672","CLASSIFICATION_TYPE":"U","MEAN_MOTION":13.14502206,"ECCENTRICITY":0.0002194,"INCLINATION":87.8969,"RA_OF_ASC_NODE":285.0302,"ARG_OF_PERICENTER":98.9921,"MEAN_ANOMALY":261.1457,"EPHEMERIS_TYPE":0,"NORAD_CAT_ID":48218,"ELEMENT_SET_NO":999,"REV_AT_EPOCH":25131,"BSTAR":-0.0003513,"MEAN_MOTION_DOT":-0.00000117,"MEAN_MOTION_DDOT":0},{"OBJECT_NAME":"ONEWEB-0183","OBJECT_ID":"2021-031K","EPOCH":"2026-07-09T06:22:48.038592","CLASSIFICATION_TYPE":"U","MEAN_MOTION":13.14501888,"ECCENTRICITY":0.00019832,"INCLINATION":87.8967,"RA_OF_ASC_NODE":285.3061,"ARG_OF_PERICENTER":92.1445,"MEAN_ANOMALY":267.9912,"EPHEMERIS_TYPE":0,"NORAD_CAT_ID":48219,"ELEMENT_SET_NO":999,"REV_AT_EPOCH":25122,"BSTAR":0.00024407982,"MEAN_MOTION_DOT":0.00000103,"MEAN_MOTION_DDOT":0},{"OBJECT_NAME":"ONEWEB-0185","OBJECT_ID":"2021-031L","EPOCH":"2026-07-10T04:55:46.681824","CLASSIFICATION_TYPE":"U","MEAN_MOTION":13.1450352,"ECCENTRICITY":0.00022515,"INCLINATION":87.8975,"RA_OF_ASC_NODE":285.1138,"ARG_OF_PERICENTER":90.1848,"MEAN_ANOMALY":269.9539,"EPHEMERIS_TYPE":0,"NORAD_CAT_ID":48220,"ELEMENT_SET_NO":999,"REV_AT_EPOCH":25127,"BSTAR":-0.00043730262,"MEAN_MOTION_DOT":-0.00000149,"MEAN_MOTION_DDOT":0},{"OBJECT_NAME":"ONEWEB-0187","OBJECT_ID":"2021-031M","EPOCH":"2026-07-11T00:32:45.410784","CLASSIFICATION_TYPE":"U","MEAN_MOTION":13.14502289,"ECCENTRICITY":0.0002226,"INCLINATION":87.8968,"RA_OF_ASC_NODE":284.9649,"ARG_OF_PERICENTER":101.4647,"MEAN_ANOMALY":258.6733,"EPHEMERIS_TYPE":0,"NORAD_CAT_ID":48221,"ELEMENT_SET_NO":999,"REV_AT_EPOCH":25139,"BSTAR":0.00039794,"MEAN_MOTION_DOT":0.0000016,"MEAN_MOTION_DDOT":0},{"OBJECT_NAME":"ONEWEB-0192","OBJECT_ID":"2021-031N","EPOCH":"2026-07-11T05:18:24.181344","CLASSIFICATION_TYPE":"U","MEAN_MOTION":13.14503025,"ECCENTRICITY":0.0002134,"INCLINATION":87.8968,"RA_OF_ASC_NODE":284.9153,"ARG_OF_PERICENTER":100.4682,"MEAN_ANOMALY":259.6688,"EPHEMERIS_TYPE":0,"NORAD_CAT_ID":48222,"ELEMENT_SET_NO":999,"REV_AT_EPOCH":25133,"BSTAR":-0.00040403,"MEAN_MOTION_DOT":-0.00000137,"MEAN_MOTION_DDOT":0},{"OBJECT_NAME":"ONEWEB-0219","OBJECT_ID":"2021-031P","EPOCH":"2026-07-10T16:01:25.796352","CLASSIFICATION_TYPE":"U","MEAN_MOTION":13.14503449,"ECCENTRICITY":0.0002221,"INCLINATION":87.8983,"RA_OF_ASC_NODE":285.0192,"ARG_OF_PERICENTER":95.3365,"MEAN_ANOMALY":264.8018,"EPHEMERIS_TYPE":0,"NORAD_CAT_ID":48223,"ELEMENT_SET_NO":999,"REV_AT_EPOCH":25146,"BSTAR":-0.00055259,"MEAN_MOTION_DOT":-0.00000192,"MEAN_MOTION_DDOT":0},{"OBJECT_NAME":"ONEWEB-0202","OBJECT_ID":"2021-031Q","EPOCH":"2026-07-10T06:26:00.283776","CLASSIFICATION_TYPE":"U","MEAN_MOTION":13.14502513,"ECCENTRICITY":0.00026039,"INCLINATION":87.8974,"RA_OF_ASC_NODE":285.1108,"ARG_OF_PERICENTER":110.8171,"MEAN_ANOMALY":249.3238,"EPHEMERIS_TYPE":0,"NORAD_CAT_ID":48224,"ELEMENT_SET_NO":999,"REV_AT_EPOCH":25139,"BSTAR":0.000015220832,"MEAN_MOTION_DOT":1.8e-7,"MEAN_MOTION_DDOT":0},{"OBJECT_NAME":"ONEWEB-0204","OBJECT_ID":"2021-031R","EPOCH":"2026-07-11T05:10:23.318688","CLASSIFICATION_TYPE":"U","MEAN_MOTION":13.14499557,"ECCENTRICITY":0.0001869,"INCLINATION":87.8973,"RA_OF_ASC_NODE":284.9159,"ARG_OF_PERICENTER":86.4497,"MEAN_ANOMALY":273.6846,"EPHEMERIS_TYPE":0,"NORAD_CAT_ID":48225,"ELEMENT_SET_NO":999,"REV_AT_EPOCH":25141,"BSTAR":-0.00048638,"MEAN_MOTION_DOT":-0.00000168,"MEAN_MOTION_DDOT":0}]}
